GLOBALSTAR M068         
1 32266U 07048D   25060.91422175 -.00000080  00000+0  13518-3 0  9991
2 32266  51.9872 269.2620 0000078 186.3593 282.4112 12.62816360804007
GLOBALSTAR M079         
1 37188U 10054A   25060.66445030 -.00000075  00000+0  16251-3 0  9998
2 37188  52.0029 107.1033 0000651  94.1636  54.9102 12.62271395662871
GLOBALSTAR M074         
1 37189U 10054B   25061.14079394 -.00000074  00000+0  16846-3 0  9998
2 37189  52.0005 104.9933 0000606 131.1733 262.6013 12.62266949663611
GLOBALSTAR M076         
1 37190U 10054C   25060.55920194 -.00000066  00000+0  21283-3 0  9999
2 37190  52.0020 106.9212 0000857 114.0257  38.2414 12.62278232663543
GLOBALSTAR M077         
1 37191U 10054D   25060.46881417 -.00000095  00000+0  49135-4 0  9993
2 37191  52.0074  64.0238 0000376 105.4972  53.5342 12.62271362663546
GLOBALSTAR M075         
1 37192U 10054E   25060.73512831 -.00000054  00000+0  27529-3 0  9992
2 37192  51.9941 148.7030 0000696 115.0183  56.9389 12.62261940662272
GLOBALSTAR M073         
1 37193U 10054F   25061.19065002 -.00000101  00000+0  15431-4 0  9990
2 37193  52.0062  61.0545 0000484  97.5969 343.0987 12.62263857664374
GLOBALSTAR M083         
1 37739U 11033A   25060.87670750 -.00000084  00000+0  11166-3 0  9990
2 37739  51.9885  10.8864 0000507  56.1689 338.8764 12.62259784633301
GLOBALSTAR M088         
1 37740U 11033B   25060.95212039 -.00000072  00000+0  17737-3 0  9990
2 37740  51.9722 276.2417 0000838  77.5779  60.5749 12.62263743628855
GLOBALSTAR M091         
1 37741U 11033C   25060.88751240 -.00000099  00000+0  28648-4 0  9998
2 37741  51.9978 239.8014 0000859  74.0784  69.4968 12.62265427629637
GLOBALSTAR M085         
1 37742U 11033D   25060.79722822 -.00000097  00000+0  35326-4 0  9992
2 37742  51.9855 191.2082 0000796  90.5627  62.5630 12.62265729630139
GLOBALSTAR M081         
1 37743U 11033E   25060.82459646 -.00000099  00000+0  25187-4 0  9994
2 37743  51.9944 193.8443 0000981  94.1654  64.0206 12.62261182630285
GLOBALSTAR M089         
1 37744U 11033F   25060.62429714 -.00000070  00000+0  18701-3 0  9998
2 37744  51.9924 148.7040 0000899 124.8853  22.2718 12.62266621631105
GLOBALSTAR M084         
1 38040U 11080A   25061.18219689 -.00000085  00000+0  10598-3 0  9992
2 38040  52.0034  14.2340 0000553 108.6058 355.1528 12.62262774609436
GLOBALSTAR M080         
1 38041U 11080B   25061.07191193 -.00000099  00000+0  24066-4 0  9991
2 38041  52.0087  16.1415 0000827 106.4101 334.4320 12.62277453609405
GLOBALSTAR M082         
1 38042U 11080C   25061.18238542 -.00000072  00000+0  17472-3 0  9997
2 38042  52.0099 331.2399 0000580  31.5111 133.4214 12.62263151610159
GLOBALSTAR M092         
1 38043U 11080D   25061.12851051 -.00000114  00000+0 -59723-4 0  9992
2 38043  52.0085  61.7709 0000323 120.7275 279.4118 12.62273093608643
GLOBALSTAR M090         
1 38044U 11080E   25060.95297823 -.00000065  00000+0  21512-3 0  9992
2 38044  51.9908 325.8863 0000662  56.8841  24.0079 12.62267373610079
GLOBALSTAR M086         
1 38045U 11080F   25060.81259965 -.00000068  00000+0  19883-3 0  9994
2 38045  51.9919 326.8562 0001534  78.2106 324.8924 12.62267336610002
GLOBALSTAR M097         
1 39072U 13005A   25060.75058604 -.00000108  00000+0 -23179-4 0  9994
2 39072  52.0025 241.4823 0001042  81.0529 279.0456 12.62270627557244
GLOBALSTAR M093         
1 39073U 13005B   25060.80286004 -.00000101  00000+0  13977-4 0  9995
2 39073  51.9788 234.7939 0001012  82.7080 277.3901 12.62262164557208
GLOBALSTAR M094         
1 39074U 13005C   25060.56565213 -.00000077  00000+0  14816-3 0  9995
2 39074  51.9952 149.7927 0000771  91.8244 268.2711 12.62268569558808
GLOBALSTAR M096         
1 39075U 13005D   25060.65809081 -.00000098  00000+0  29565-4 0  9991
2 39075  52.0058 197.9418 0000874  84.3187 275.7779 12.62268717557716
GLOBALSTAR M078         
1 39076U 13005E   25060.86853090 -.00000044  00000+0  33463-3 0  9996
2 39076  51.9868 281.9556 0000598   0.5875 359.4992 12.62259898556365
GLOBALSTAR M095         
1 39077U 13005F   25060.81626508 -.00000075  00000+0  16019-3 0  9996
2 39077  51.9789 279.3683 0000903  42.9032 317.1905 12.62267322556215
GLOBALSTAR M087         
1 52888U 22064A   25060.45103143 -.00000095  00000+0  46837-4 0  9995
2 52888  51.9794  61.8816 0000301  71.6697 288.4202 12.62269068131438
